NORAD_CAT_ID,OBJECT_NAME,OBJECT_TYPE,EPOCH,MEAN_MOTION,ECCENTRICITY,INCLINATION,RA_OF_ASC_NODE,ARG_OF_PERICENTER,MEAN_ANOMALY,BSTAR,MEAN_MOTION_DOT,MEAN_MOTION_DDOT,TLE_LINE0,TLE_LINE1,TLE_LINE2,SEMIMAJOR_AXIS,PERIOD,APOGEE,PERIGEE,DECAYED
53406.0,STARLINK-4533,PAYLOAD,2023-08-01 00:44:51,15.08838908,0.0001118,53.2167,66.2838,96.2599,263.8521,2.8348e-07,-2.83e-06,0.0,0 STARLINK-4533,1 53406U 22097U   23213.03115591 -.00000283  00000-0  28348-6 0  9999,2 53406  53.2167  66.2838 0001118  96.2599 263.8521 15.08838908 54497,6917.884,95.438,540.522,538.975,0.0
53406.0,STARLINK-4533,PAYLOAD,2023-08-02 06:57:11,15.08840987,0.0001024,53.2166,60.6332,92.4142,267.6968,0.00014851,2.077e-05,0.0,0 STARLINK-4533,1 53406U 22097U   23214.28971914  .00002077  00000-0  14851-3 0  9999,2 53406  53.2166  60.6332 0001024  92.4142 267.6968 15.08840987 54689,6917.877,95.437,540.451,539.034,0.0
53406.0,STARLINK-4533,PAYLOAD,2023-08-02 22:51:02,15.08853612,0.0001077,53.2167,57.6597,89.3048,270.8068,0.00029786,4.458e-05,0.0,0 STARLINK-4533,1 53406U 22097U   23214.95211375  .00004458  00000-0  29786-3 0  9999,2 53406  53.2167  57.6597 0001077  89.3048 270.8068 15.08853612 54784,6917.839,95.437,540.449,538.959,0.0
53406.0,STARLINK-4533,PAYLOAD,2023-08-03 17:55:41,15.08838361,0.0001032,53.2159,54.0917,80.3844,279.7265,1.3178e-05,-7.8e-07,0.0,0 STARLINK-4533,1 53406U 22097U   23215.74700303 -.00000078  00000-0  13178-4 0  9995,2 53406  53.2159  54.0917 0001032  80.3844 279.7265 15.08838361 54903,6917.885,95.438,540.464,539.036,0.0
53406.0,STARLINK-4533,PAYLOAD,2023-08-04 22:32:37,15.08847518,0.0001119,53.2167,48.7396,76.9747,283.137,0.00027005,4.013e-05,0.0,0 STARLINK-4533,1 53406U 22097U   23216.93932185  .00004013  00000-0  27005-3 0  9997,2 53406  53.2167  48.7396 0001119  76.9747 283.1370 15.08847518 55082,6917.857,95.437,540.497,538.948,0.0
53406.0,STARLINK-4533,PAYLOAD,2023-08-06 19:03:26,15.08825127,9.56e-05,53.2175,40.4119,90.4822,269.628,-0.00016626,-2.932e-05,0.0,0 STARLINK-4533,1 53406U 22097U   23218.79405450 -.00002932  00000-0 -16626-3 0  9990,2 53406  53.2175  40.4119 0000956  90.4822 269.6280 15.08825127 55368,6917.926,95.438,540.452,539.129,0.0
53406.0,STARLINK-4533,PAYLOAD,2023-08-07 18:54:13,15.08844087,9.08e-05,53.2171,35.9518,108.6904,251.4186,0.00010954,1.456e-05,0.0,0 STARLINK-4533,1 53406U 22097U   23219.78765215  .00001456  00000-0  10954-3 0  9994,2 53406  53.2171  35.9518 0000908 108.6904 251.4186 15.08844087 55513,6917.868,95.437,540.361,539.105,0.0
53406.0,STARLINK-4533,PAYLOAD,2023-08-08 20:20:23,15.08868331,9.21e-05,53.2175,31.1945,101.0064,259.1032,0.00082361,0.00012854,0.0,0 STARLINK-4533,1 53406U 22097U   23220.84748879  .00012854  00000-0  82361-3 0  9995,2 53406  53.2175  31.1945 0000921 101.0064 259.1032 15.08868331 55678,6917.794,95.436,540.296,539.022,0.0
53406.0,STARLINK-4533,PAYLOAD,2023-08-09 10:38:51,15.08855035,0.000147,53.2158,28.5205,80.7795,279.3363,0.00027871,4.152e-05,0.0,0 STARLINK-4533,1 53406U 22097U   23221.44364764  .00004152  00000-0  27871-3 0  9996,2 53406  53.2158  28.5205 0001470  80.7795 279.3363 15.08855035 55760,6917.834,95.437,540.716,538.683,0.0
53406.0,STARLINK-4533,PAYLOAD,2023-08-09 15:25:00,15.08848109,7.95e-05,53.2177,27.6269,89.4534,270.6549,6.9754e-05,8.23e-06,0.0,0 STARLINK-4533,1 53406U 22097U   23221.64236831  .00000823  00000-0  69754-4 0  9999,2 53406  53.2177  27.6269 0000795  89.4534 270.6549 15.08848109 55794,6917.856,95.437,540.271,539.171,0.0
53406.0,STARLINK-4533,PAYLOAD,2023-08-10 10:29:38,15.08837956,9.6e-05,53.2177,24.0587,73.0293,287.0804,0.00031638,4.751e-05,0.0,0 STARLINK-4533,1 53406U 22097U   23222.43725190  .00004751  00000-0  31638-3 0  9991,2 53406  53.2177  24.0587 0000960  73.0293 287.0804 15.08837956 55911,6917.887,95.438,540.416,539.088,0.0
53406.0,STARLINK-4533,PAYLOAD,2023-08-11 03:58:53,15.08835515,9.35e-05,53.2163,20.787,72.1298,287.9796,0.00012371,1.681e-05,0.0,0 STARLINK-4533,1 53406U 22097U   23223.16589408  .00001681  00000-0  12371-3 0  9994,2 53406  53.2163  20.7870 0000935  72.1298 287.9796 15.08835515 56022,6917.894,95.438,540.406,539.112,0.0
53406.0,STARLINK-4533,PAYLOAD,2023-08-12 10:11:13,15.0884077,7.23e-05,53.2182,15.1341,87.4258,272.6817,0.00032559,4.898e-05,0.0,0 STARLINK-4533,1 53406U 22097U   23224.42445605  .00004898  00000-0  32559-3 0  9997,2 53406  53.2182  15.1341 0000723  87.4258 272.6817 15.08840770 56219,6917.878,95.438,540.243,539.243,0.0
53406.0,STARLINK-4533,PAYLOAD,2023-08-12 19:43:31,15.08857311,9.34e-05,53.2175,13.351,84.3752,275.7346,0.00040632,6.188e-05,0.0,0 STARLINK-4533,1 53406U 22097U   23224.82188825  .00006188  00000-0  40632-3 0  9994,2 53406  53.2175  13.3510 0000934  84.3752 275.7346 15.08857311 56274,6917.827,95.436,540.339,539.046,0.0
53406.0,STARLINK-4533,PAYLOAD,2023-08-13 10:01:59,15.08842745,0.0001073,53.217,10.6749,88.3313,271.7802,0.00015551,2.188e-05,0.0,0 STARLINK-4533,1 53406U 22097U   23225.41805461  .00002188  00000-0  15551-3 0  9990,2 53406  53.2170  10.6749 0001073  88.3313 271.7802 15.08842745 56363,6917.872,95.437,540.479,538.995,0.0
53406.0,STARLINK-4533,PAYLOAD,2023-08-14 17:49:42,15.08851775,0.0001093,53.2177,4.7286,79.644,280.4675,0.00021706,3.169e-05,0.0,0 STARLINK-4533,1 53406U 22097U   23226.74284886  .00003169  00000-0  21706-3 0  9998,2 53406  53.2177   4.7286 0001093  79.6440 280.4675 15.08851775 56566,6917.844,95.437,540.466,538.953,0.0
53406.0,STARLINK-4533,PAYLOAD,2023-08-15 09:43:33,15.08841342,0.0001181,53.2185,1.7552,81.4726,278.64,9.4822e-05,1.222e-05,0.0,0 STARLINK-4533,1 53406U 22097U   23227.40525234  .00001222  00000-0  94822-4 0  9995,2 53406  53.2185   1.7552 0001181  81.4726 278.6400 15.08841342 56669,6917.876,95.437,540.558,538.924,0.0
53406.0,STARLINK-4533,PAYLOAD,2023-08-16 17:31:16,15.08845215,0.0001517,53.2185,355.8085,91.4367,268.6799,0.00015173,2.128e-05,0.0,0 STARLINK-4533,1 53406U 22097U   23228.73004952  .00002128  00000-0  15173-3 0  9998,2 53406  53.2185 355.8085 0001517  91.4367 268.6799 15.08845215 56863,6917.864,95.437,540.779,538.68,0.0
53406.0,STARLINK-4533,PAYLOAD,2023-08-17 01:28:12,15.08838656,0.0002002,53.2154,354.3222,86.1059,274.0162,6.1969e-05,6.98e-06,0.0,0 STARLINK-4533,1 53406U 22097U   23229.06125543  .00000698  00000-0  61969-4 0  9990,2 53406  53.2154 354.3222 0002002  86.1059 274.0162 15.08838656 56917,6917.884,95.438,541.134,538.365,0.0
53406.0,STARLINK-4533,PAYLOAD,2023-08-18 07:40:32,15.08835511,0.0001664,53.2172,348.672,78.5397,281.5782,7.6348e-05,9.27e-06,0.0,0 STARLINK-4533,1 53406U 22097U   23230.31981740  .00000927  00000-0  76348-4 0  9991,2 53406  53.2172 348.6720 0001664  78.5397 281.5782 15.08835511 57109,6917.894,95.438,540.91,538.608,0.0
53406.0,STARLINK-4533,PAYLOAD,2023-08-19 15:28:14,15.08846348,0.0001059,53.2163,342.7243,85.225,274.8863,0.00020519,2.98e-05,0.0,0 STARLINK-4533,1 53406U 22097U   23231.64461463  .00002980  00000-0  20519-3 0  9992,2 53406  53.2163 342.7243 0001059  85.2250 274.8863 15.08846348 57302,6917.861,95.437,540.459,538.993,0.0
53406.0,STARLINK-4533,PAYLOAD,2023-08-20 12:08:16,15.08836167,0.0001257,53.2175,338.859,83.6128,276.5007,0.00014758,2.061e-05,0.0,0 STARLINK-4533,1 53406U 22097U   23232.50574198  .00002061  00000-0  14758-3 0  9996,2 53406  53.2175 338.8590 0001257  83.6128 276.5007 15.08836167 57433,6917.892,95.438,540.627,538.888,0.0
53406.0,STARLINK-4533,PAYLOAD,2023-08-20 16:54:25,15.08846549,0.0001141,53.219,337.9665,79.0185,281.0935,0.0001575,2.22e-05,0.0,0 STARLINK-4533,1 53406U 22097U   23232.70445651  .00002220  00000-0  15750-3 0  9999,2 53406  53.2190 337.9665 0001141  79.0185 281.0935 15.08846549 57466,6917.86,95.437,540.515,538.936,0.0
53406.0,STARLINK-4533,PAYLOAD,2023-08-21 11:59:02,15.08840364,0.0001131,53.218,334.398,94.3996,265.7125,0.00012846,1.757e-05,0.0,0 STARLINK-4533,1 53406U 22097U   23233.49933944  .00001757  00000-0  12846-3 0  9990,2 53406  53.2180 334.3980 0001131  94.3996 265.7125 15.08840364 57587,6917.879,95.438,540.527,538.962,0.0
53406.0,STARLINK-4533,PAYLOAD,2023-08-22 11:49:50,15.08837172,0.0001394,53.218,329.9367,104.3575,255.7572,3.8892e-05,3.31e-06,0.0,0 STARLINK-4533,1 53406U 22097U   23234.49294335  .00000331  00000-0  38892-4 0  9992,2 53406  53.2180 329.9367 0001394 104.3575 255.7572 15.08837172 57737,6917.889,95.438,540.718,538.79,0.0
53406.0,STARLINK-4533,PAYLOAD,2023-08-23 11:40:36,15.08861212,0.0001491,53.2173,325.4788,118.6711,241.4431,-0.00017248,-3.034e-05,0.0,0 STARLINK-4533,1 53406U 22097U   23235.48653075 -.00003034  00000-0 -17248-3 0  9998,2 53406  53.2173 325.4788 0001491 118.6711 241.4431 15.08861212 57889,6917.816,95.436,540.712,538.649,0.0
53406.0,STARLINK-4533,PAYLOAD,2023-08-24 11:31:24,15.08837567,0.0001569,53.2183,321.0187,106.1982,253.9183,3.0481e-05,1.97e-06,0.0,0 STARLINK-4533,1 53406U 22097U   23236.48014282  .00000197  00000-0  30481-4 0  9990,2 53406  53.2183 321.0187 0001569 106.1982 253.9183 15.08837567 58039,6917.888,95.438,540.838,538.667,0.0
53406.0,STARLINK-4533,PAYLOAD,2023-08-25 09:46:48,15.08841135,0.0001597,53.2178,316.8544,111.7476,248.3686,-2.978e-05,-7.62e-06,0.0,0 STARLINK-4533,1 53406U 22097U   23237.40750092 -.00000762  00000-0 -29780-4 0  9999,2 53406  53.2178 316.8544 0001597 111.7476 248.3686 15.08841135 58664,6917.877,95.437,540.847,538.637,0.0
53406.0,STARLINK-4533,PAYLOAD,2023-08-25 12:57:34,15.08844212,0.0001615,53.2174,316.2612,64.6116,295.5043,4.8979e-05,4.92e-06,0.0,0 STARLINK-4533,1 53406U 22097U   23237.53998221  .00000492  00000-0  48979-4 0  9990,2 53406  53.2174 316.2612 0001615  64.6116 295.5043 15.08844212 58196,6917.868,95.437,540.85,538.615,0.0
53406.0,STARLINK-4533,PAYLOAD,2023-08-26 12:48:21,15.08840326,0.0001404,53.2176,311.801,65.649,294.4649,0.00013344,1.836e-05,0.0,0 STARLINK-4533,1 53406U 22097U   23238.53358591  .00001836  00000-0  13344-3 0  9991,2 53406  53.2176 311.8010 0001404  65.6490 294.4649 15.08840326 58836,6917.879,95.438,540.716,538.773,0.0
